{"type":"FeatureCollection","name":"Ranh giới 5 xã cụm Đồng Xuân (OSM)","source":"OpenStreetMap contributors","license":"ODbL 1.0","features":[{"type":"Feature","properties":{"name":"Đồng Xuân","fullName":"Xã Đồng Xuân","code":"22081","areaKm2":206.26,"source":"OpenStreetMap","osmType":"relation","osmId":19392118,"adminLevel":6},"geometry":{"type":"Polygon","coordinates":[[[108.9958433,13.4168604],[108.9961271,13.415212],[108.9968602,13.414083],[108.998208,13.4126605],[108.9985864,13.4111702],[108.9984208,13.4101089],[108.9990356,13.4082122],[108.9987992,13.4066767],[108.9996505,13.4047122],[109.0000052,13.4031316],[109.0014003,13.4013478],[109.0013767,13.4001511],[109.0017314,13.398435],[109.0030556,13.3971705],[109.0046872,13.3947996],[109.0060351,13.3923609],[109.0068863,13.3914351],[109.0067918,13.3901481],[109.0072647,13.3879578],[109.0081869,13.3865578],[109.009322,13.3860385],[109.0099841,13.3852482],[109.0113792,13.3852933],[109.0124433,13.3837127],[109.0141459,13.3824031],[109.0150445,13.3807999],[109.0156356,13.380416],[109.016416,13.3790386],[109.0178348,13.3772096],[109.0183786,13.3754936],[109.0191117,13.3740484],[109.0196319,13.373642],[109.0197974,13.372513],[109.0217838,13.3689227],[109.0228479,13.368855],[109.0232499,13.368155],[109.0232735,13.3666873],[109.0228715,13.3659647],[109.0234154,13.3645648],[109.0239829,13.3642938],[109.023912,13.3630067],[109.024243,13.3623068],[109.02351,13.3614487],[109.0240302,13.35971],[109.025449,13.3598681],[109.0267732,13.3595971],[109.0269387,13.3583327],[109.0266313,13.3563004],[109.0268205,13.3555779],[109.0255909,13.3544263],[109.0247869,13.3530263],[109.02351,13.3539747],[109.0233208,13.3525973],[109.0249288,13.3515135],[109.0263949,13.3510844],[109.0262057,13.3506102],[109.026584,13.3492329],[109.0272461,13.3482168],[109.0282157,13.3478781],[109.0292561,13.3467716],[109.0303202,13.3461845],[109.0310533,13.3445814],[109.0321646,13.3449878],[109.0334889,13.3446717],[109.0343401,13.343791],[109.0358535,13.3427749],[109.0366102,13.3429556],[109.0382418,13.3417137],[109.0404173,13.3409459],[109.0409849,13.3424137],[109.0414341,13.3409008],[109.0422145,13.3403137],[109.0437279,13.3380557],[109.0447683,13.3386654],[109.0458324,13.3383492],[109.0463054,13.3386879],[109.0481025,13.3376493],[109.0509165,13.3367912],[109.0516022,13.3370622],[109.0515076,13.3382815],[109.0525954,13.3390041],[109.0547945,13.3400653],[109.0551256,13.3405621],[109.0577031,13.341375],[109.0584598,13.3410589],[109.0598549,13.341375],[109.0590036,13.3436556],[109.0593583,13.345191],[109.0592165,13.3464103],[109.0585307,13.3475845],[109.058578,13.3495716],[109.0604461,13.3488942],[109.0623142,13.3473813],[109.0640167,13.346749],[109.0653646,13.3465458],[109.0665469,13.3456652],[109.0694791,13.3461845],[109.0710871,13.3458684],[109.0723167,13.3460942],[109.074705,13.3459587],[109.0773771,13.3476071],[109.0783466,13.3477877],[109.0798837,13.3486232],[109.0805931,13.3498425],[109.0809714,13.3518747],[109.081468,13.3523038],[109.0815626,13.3535908],[109.0808768,13.3563908],[109.0808295,13.3574294],[109.0812788,13.3595068],[109.0823429,13.3598455],[109.0831705,13.3593262],[109.0853933,13.3587165],[109.0875925,13.3587391],[109.0883965,13.3591681],[109.0892004,13.3580391],[109.0910449,13.3577004],[109.0920144,13.3569553],[109.0938115,13.356323],[109.0942608,13.3541779],[109.095987,13.3531844],[109.0973822,13.3536134],[109.0986828,13.3536811],[109.1022298,13.3517167],[109.1037432,13.3503167],[109.1040269,13.3513328],[109.104689,13.352078],[109.1062024,13.3530715],[109.1078813,13.3533199],[109.1079286,13.3527779],[109.1072429,13.351536],[109.1079523,13.3505877],[109.1071246,13.3499103],[109.1085198,13.3487587],[109.107834,13.3480813],[109.1077631,13.3463652],[109.1081414,13.3442201],[109.1092528,13.3443104],[109.1103879,13.3431362],[109.109442,13.3426395],[109.1088508,13.3413976],[109.1093711,13.3404492],[109.1112864,13.3404718],[109.1119013,13.3391621],[109.1115229,13.338146],[109.1120195,13.3371299],[109.1116648,13.3342848],[109.1121377,13.3313946],[109.1111446,13.3311236],[109.1104352,13.3296333],[109.1092528,13.3281204],[109.1109554,13.3274204],[109.1122087,13.3273075],[109.1114047,13.3255463],[109.1130363,13.3239431],[109.1131545,13.3226335],[109.1126107,13.3219335],[109.1133201,13.3216851],[109.1144551,13.3234012],[109.1161577,13.3234463],[109.1172218,13.3242818],[109.1193736,13.3253657],[109.1193263,13.3235592],[109.1201539,13.3229722],[109.1218802,13.3211206],[109.1241502,13.3211658],[109.1254508,13.3217528],[109.1270588,13.322927],[109.1286904,13.3229947],[109.1301801,13.325456],[109.1308659,13.3257721],[109.1319063,13.3229496],[109.1331833,13.3221593],[109.1337744,13.3225883],[109.1352169,13.3211658],[109.135879,13.3212335],[109.137487,13.3204883],[109.1400408,13.3207593],[109.1412231,13.3213238],[109.1419798,13.3198335],[109.1433986,13.3193142],[109.1442026,13.3183207],[109.1456214,13.3183884],[109.1460707,13.3194045],[109.1466619,13.3188174],[109.1486246,13.3189303],[109.1485773,13.3204206],[109.1498542,13.3220464],[109.1517223,13.3225657],[109.1527864,13.3223851],[109.1538505,13.3227464],[109.1548436,13.3227012],[109.1550328,13.3232431],[109.1565225,13.3227464],[109.1596912,13.3241012],[109.1612046,13.3250495],[109.1624106,13.3252979],[109.162718,13.3260656],[109.1639476,13.3247334],[109.1637111,13.3239883],[109.1663596,13.3238754],[109.1679675,13.3243496],[109.1686296,13.3231754],[109.169008,13.3212787],[109.1695519,13.3213012],[109.1704268,13.3204432],[109.1714672,13.3204658],[109.173288,13.3211883],[109.1736427,13.3215496],[109.1753453,13.321527],[109.1757,13.3228141],[109.1771188,13.3217303],[109.1789159,13.3241689],[109.1784667,13.3246883],[109.1760547,13.3252076],[109.1741157,13.3259076],[109.173288,13.3269914],[109.1743048,13.3276011],[109.1753453,13.3272172],[109.1762439,13.3274656],[109.1766932,13.3282108],[109.1768114,13.3294527],[109.1759838,13.3319816],[109.1759365,13.3330881],[109.1764803,13.3346235],[109.1774499,13.3356622],[109.1783721,13.3371976],[109.1790815,13.3375589],[109.1808313,13.3394557],[109.1818008,13.3397718],[109.1817299,13.3406298],[109.1835034,13.3428878],[109.1850404,13.3454846],[109.1857735,13.3463878],[109.1880672,13.3475619],[109.1894151,13.3485555],[109.1911649,13.3504748],[109.1915906,13.3519651],[109.1907156,13.3528457],[109.1906211,13.3543811],[109.1896752,13.3549005],[109.1889894,13.3574069],[109.1878307,13.3584456],[109.1862464,13.3589197],[109.1850877,13.3598907],[109.1841182,13.3602294],[109.1822028,13.3617874],[109.1824866,13.3630067],[109.1821555,13.364339],[109.1800983,13.3666647],[109.1812097,13.368155],[109.1820846,13.3681324],[109.1822974,13.3698485],[109.181257,13.3702324],[109.1807367,13.3710227],[109.1799091,13.3710678],[109.1809023,13.3735291],[109.1791761,13.3731452],[109.1774971,13.3730549],[109.1746123,13.3723549],[109.1728151,13.3724904],[109.1716801,13.3731904],[109.1694573,13.3737775],[109.168204,13.3757194],[109.1685351,13.3765548],[109.1696937,13.3776161],[109.1708288,13.3791064],[109.1711362,13.380845],[109.1722712,13.3828321],[109.1711598,13.3833966],[109.1703322,13.384345],[109.1701903,13.3852482],[109.1716091,13.3866933],[109.1735482,13.3879804],[109.1730516,13.3900126],[109.1747541,13.3912319],[109.1764094,13.3917287],[109.1761729,13.3931061],[109.174896,13.3936254],[109.1750379,13.3949351],[109.1760547,13.3970802],[109.1755818,13.3976672],[109.1756291,13.3990221],[109.1745886,13.3995414],[109.1746832,13.4021833],[109.1743758,13.4032445],[109.1730279,13.4038994],[109.1723422,13.4053219],[109.1721766,13.4065412],[109.1715618,13.4077831],[109.1719875,13.408438],[109.169741,13.4094315],[109.167069,13.4113282],[109.1660049,13.4096347],[109.16539,13.409138],[109.1643969,13.4101992],[109.1635693,13.4124347],[109.1625761,13.4127508],[109.1615593,13.4125476],[109.1610154,13.414783],[109.1605188,13.4153927],[109.1593365,13.4149185],[109.1579886,13.4162055],[109.156759,13.4178313],[109.1556003,13.4173571],[109.1551747,13.4164088],[109.1537086,13.4160249],[109.1540869,13.4147378],[109.1519351,13.411125],[109.1472294,13.4112153],[109.1458815,13.4120508],[109.1439189,13.4122314],[109.1419562,13.4132475],[109.1400881,13.4129766],[109.1394969,13.4132927],[109.1382437,13.4125701],[109.1381727,13.4142411],[109.1368249,13.4172442],[109.1364465,13.4184636],[109.1355479,13.41957],[109.135879,13.420857],[109.1368249,13.4227086],[109.1346257,13.4234312],[109.1333724,13.424086],[109.1329468,13.4247408],[109.1334434,13.4256666],[109.1308422,13.4259602],[109.1301092,13.4274956],[109.1290924,13.4288278],[109.1280519,13.4293698],[109.1274844,13.4308149],[109.1265622,13.4302504],[109.1246705,13.4298214],[109.1235118,13.4297988],[109.1238192,13.4308149],[109.1228497,13.43366],[109.1234408,13.4348341],[109.1229443,13.4354664],[109.12363,13.4363922],[109.1226605,13.4381308],[109.1220457,13.4385373],[109.12162,13.4408405],[109.1211471,13.4416985],[109.121289,13.442692],[109.1207451,13.4430307],[109.1206269,13.4439339],[109.1189243,13.4451533],[109.119681,13.4458533],[109.1193027,13.4465532],[109.1170799,13.4485855],[109.1157557,13.4495112],[109.114597,13.4510918],[109.113793,13.4532595],[109.111783,13.4530563],[109.1101987,13.4524467],[109.1095366,13.4527854],[109.1082833,13.4541402],[109.1073138,13.455924],[109.1063206,13.4556982],[109.1055167,13.4550434],[109.1043343,13.4550208],[109.1030101,13.4581143],[109.1026318,13.4584304],[109.1010001,13.4584304],[109.1009055,13.4591078],[109.0997942,13.4604174],[109.0990611,13.460869],[109.0979024,13.460869],[109.0964836,13.4627432],[109.0946392,13.4628335],[109.0932204,13.4641657],[109.0919908,13.4642109],[109.0911631,13.4648431],[109.0906665,13.4660625],[109.0886093,13.4665818],[109.0874979,13.4656786],[109.0875215,13.4673044],[109.0870486,13.4678237],[109.0848731,13.4686818],[109.082674,13.4687947],[109.0817754,13.469314],[109.0813261,13.4703075],[109.0807113,13.470014],[109.0795053,13.4703301],[109.0745159,13.4639174],[109.0705196,13.4620206],[109.0696446,13.4613658],[109.0689116,13.4599207],[109.0695501,13.4575046],[109.0683914,13.4571885],[109.0665469,13.4582497],[109.0666888,13.4592659],[109.0659321,13.4607561],[109.064868,13.4604852],[109.0633073,13.4622239],[109.0622669,13.4621787],[109.0607298,13.4629464],[109.0602333,13.4639399],[109.059713,13.4641432],[109.0585071,13.4633077],[109.0573011,13.4639851],[109.0555749,13.4636012],[109.0552911,13.4631722],[109.0532102,13.4625851],[109.0528791,13.4607561],[109.051886,13.4594013],[109.0517677,13.4577756],[109.05068,13.458182],[109.0490247,13.4569175],[109.047866,13.4551337],[109.045596,13.4529208],[109.0444136,13.4526725],[109.0433732,13.4529434],[109.0417416,13.4540498],[109.0412686,13.4547724],[109.0397552,13.4554047],[109.0389276,13.4554047],[109.0380527,13.4546369],[109.0359954,13.4535757],[109.0357353,13.4529886],[109.0341983,13.4528757],[109.0332997,13.4510918],[109.0336544,13.4503919],[109.0333706,13.4491725],[109.0341037,13.448608],[109.0338909,13.4480435],[109.0353806,13.4456275],[109.0351441,13.4446565],[109.0354752,13.444092],[109.0348367,13.4439114],[109.0326139,13.4446339],[109.0315735,13.444792],[109.0298473,13.4442275],[109.0294689,13.4447468],[109.0278373,13.4449726],[109.0269387,13.4454017],[109.0260165,13.4441597],[109.0245741,13.4441146],[109.023037,13.4433017],[109.0237937,13.4427146],[109.0240538,13.4409759],[109.0231553,13.4398695],[109.0222803,13.4362567],[109.0224222,13.4342471],[109.023037,13.4323278],[109.0245504,13.4317181],[109.0253308,13.430702],[109.0272461,13.4308375],[109.0272934,13.4289859],[109.0267969,13.4283537],[109.0260165,13.4283537],[109.0256382,13.4276085],[109.0259456,13.4260505],[109.025449,13.4250795],[109.0248578,13.4250344],[109.0231553,13.4236796],[109.0210507,13.4233634],[109.0094875,13.4169507],[109.0073593,13.4166797],[109.0057986,13.4159572],[109.0026536,13.4165442],[109.0022043,13.4171765],[109.0012584,13.4172894],[108.9993904,13.4184636],[108.9986337,13.4183055],[108.9976641,13.4174474],[108.9961744,13.4173345],[108.9958433,13.4168604]]]}},{"type":"Feature","properties":{"name":"Xuân Lãnh","fullName":"Xã Xuân Lãnh","code":"22090","areaKm2":174.65,"source":"OpenStreetMap","osmType":"relation","osmId":19392094,"adminLevel":6},"geometry":{"type":"Polygon","coordinates":[[[108.9482899,13.5183355],[108.9494959,13.5166871],[108.950158,13.516213],[108.9510802,13.5140678],[108.9505127,13.5121259],[108.9505127,13.5109969],[108.9494959,13.5092809],[108.9498978,13.5082196],[108.9494249,13.5063906],[108.9499451,13.5050809],[108.9499215,13.5034778],[108.950489,13.5018294],[108.9503235,13.5009714],[108.9534921,13.5025971],[108.9546035,13.5023262],[108.9552184,13.5012423],[108.9575594,13.4995037],[108.959924,13.4985553],[108.9618867,13.4990972],[108.9628326,13.4982166],[108.9629745,13.495507],[108.9632109,13.4946263],[108.9625961,13.49142],[108.9624779,13.4892523],[108.9651027,13.4866556],[108.9667106,13.4833589],[108.9676565,13.4803557],[108.9673018,13.4799267],[108.9678693,13.4793396],[108.9677511,13.478617],[108.9662614,13.4768332],[108.965481,13.4767655],[108.9647243,13.47593],[108.9648898,13.4742365],[108.9641804,13.4733559],[108.9644642,13.472272],[108.9642987,13.4710301],[108.9651027,13.4677334],[108.9661904,13.4665592],[108.9665924,13.4653851],[108.9663323,13.464098],[108.9649844,13.4631496],[108.964346,13.4617045],[108.9648425,13.460282],[108.9664742,13.4602594],[108.9684605,13.4612303],[108.9694064,13.4602142],[108.9701394,13.4599884],[108.971369,13.4589723],[108.972244,13.459311],[108.9740175,13.458882],[108.9743722,13.4578433],[108.976595,13.4566691],[108.9783212,13.455495],[108.978132,13.4546821],[108.9787468,13.4533047],[108.9786995,13.4516112],[108.9799528,13.4506177],[108.9801183,13.4501435],[108.9813716,13.4495112],[108.9819391,13.44775],[108.9838308,13.4469823],[108.9837835,13.4443855],[108.9833343,13.4430759],[108.9840437,13.4419695],[108.9853442,13.4419243],[108.986361,13.4399373],[108.9862191,13.4390115],[108.9865029,13.4360761],[108.9852969,13.4348341],[108.9845166,13.4330955],[108.9855807,13.4306342],[108.9876616,13.4292794],[108.9881818,13.4286246],[108.9892696,13.4263214],[108.9900026,13.4240408],[108.9926983,13.420699],[108.9933132,13.4194119],[108.9936442,13.4180119],[108.9944482,13.4160926],[108.9961271,13.415212],[108.9958433,13.4168604],[108.9961744,13.4173345],[108.9976641,13.4174474],[108.9986337,13.4183055],[108.9993904,13.4184636],[109.0012584,13.4172894],[109.0022043,13.4171765],[109.0026536,13.4165442],[109.0057986,13.4159572],[109.0073593,13.4166797],[109.0094875,13.4169507],[109.0210507,13.4233634],[109.0231553,13.4236796],[109.0248578,13.4250344],[109.025449,13.4250795],[109.0259456,13.4260505],[109.0256382,13.4276085],[109.0260165,13.4283537],[109.0267969,13.4283537],[109.0272934,13.4289859],[109.0272461,13.4308375],[109.0253308,13.430702],[109.0245504,13.4317181],[109.023037,13.4323278],[109.0224222,13.4342471],[109.0222803,13.4362567],[109.0231553,13.4398695],[109.0240538,13.4409759],[109.0237937,13.4427146],[109.023037,13.4433017],[109.0245741,13.4441146],[109.0260165,13.4441597],[109.0269387,13.4454017],[109.0278373,13.4449726],[109.0294689,13.4447468],[109.0298473,13.4442275],[109.0315735,13.444792],[109.0326139,13.4446339],[109.0348367,13.4439114],[109.0354752,13.444092],[109.0351441,13.4446565],[109.0353806,13.4456275],[109.0338909,13.4480435],[109.0341037,13.448608],[109.0333706,13.4491725],[109.0336544,13.4503919],[109.0332997,13.4510918],[109.0341983,13.4528757],[109.0357353,13.4529886],[109.0359954,13.4535757],[109.0380527,13.4546369],[109.0389276,13.4554047],[109.0397552,13.4554047],[109.0412686,13.4547724],[109.0417416,13.4540498],[109.0433732,13.4529434],[109.0444136,13.4526725],[109.045596,13.4529208],[109.047866,13.4551337],[109.0490247,13.4569175],[109.05068,13.458182],[109.0517677,13.4577756],[109.051886,13.4594013],[109.0528791,13.4607561],[109.0532102,13.4625851],[109.0552911,13.4631722],[109.0555749,13.4636012],[109.0573011,13.4639851],[109.0585071,13.4633077],[109.059713,13.4641432],[109.0602333,13.4639399],[109.0607298,13.4629464],[109.0622669,13.4621787],[109.0633073,13.4622239],[109.064868,13.4604852],[109.0659321,13.4607561],[109.0666888,13.4592659],[109.0665469,13.4582497],[109.0683914,13.4571885],[109.0695501,13.4575046],[109.0689116,13.4599207],[109.0696446,13.4613658],[109.0705196,13.4620206],[109.0745159,13.4639174],[109.0795053,13.4703301],[109.0807113,13.470014],[109.0813261,13.4703075],[109.0817754,13.469314],[109.082674,13.4687947],[109.0848731,13.4686818],[109.0870486,13.4678237],[109.0875215,13.4673044],[109.0874979,13.4656786],[109.0886093,13.4665818],[109.0906665,13.4660625],[109.0921326,13.466627],[109.0929839,13.4673721],[109.0939534,13.4673495],[109.094852,13.4679818],[109.0946628,13.4699237],[109.0953486,13.4710753],[109.0973349,13.4720914],[109.100007,13.4723849],[109.100811,13.4718656],[109.1018751,13.472272],[109.1025372,13.4733333],[109.1041688,13.4744623],[109.1063679,13.4743268],[109.1064625,13.4748687],[109.1056822,13.4756139],[109.1066517,13.4772396],[109.1089454,13.4776461],[109.1093474,13.4784815],[109.10904,13.4793848],[109.1103406,13.4809879],[109.1116411,13.4808299],[109.1124451,13.4818234],[109.1126343,13.482704],[109.1144551,13.4829524],[109.1158739,13.4844879],[109.1162522,13.4853233],[109.1173163,13.4860685],[109.1182149,13.4862943],[109.1183804,13.4897265],[109.1187824,13.4902684],[109.1191135,13.4925941],[109.1186169,13.4935425],[109.1188061,13.4941747],[109.1198465,13.4948973],[109.119681,13.4953941],[109.1205086,13.4970424],[109.1202249,13.4983746],[109.1206269,13.4991875],[109.1207451,13.5010391],[109.1213126,13.5030036],[109.121289,13.5040423],[109.1202012,13.5069099],[109.1180021,13.5086938],[109.1182859,13.510297],[109.1054457,13.5301901],[109.1008583,13.5399447],[109.1007164,13.5412317],[109.1011657,13.543851],[109.1016386,13.5445284],[109.1012839,13.5458381],[109.1039323,13.5461994],[109.1054221,13.546809],[109.106628,13.5477122],[109.1163705,13.5713762],[109.1167252,13.5725052],[109.1163941,13.5738375],[109.1167488,13.5756213],[109.1158503,13.5772245],[109.1158975,13.5793018],[109.1161577,13.5808373],[109.116938,13.5822824],[109.1170853,13.5843456],[109.1161439,13.5843091],[109.1158821,13.5843369],[109.1156176,13.5843869],[109.1153526,13.5844603],[109.1147089,13.5847262],[109.1145599,13.5848357],[109.1144299,13.5849661],[109.1141915,13.5852894],[109.1140652,13.5854458],[109.1138077,13.5857378],[109.1127884,13.5865825],[109.1127047,13.5866542],[109.1126276,13.5867326],[109.1125032,13.5868953],[109.1124129,13.5870623],[109.1112864,13.5876567],[109.1103798,13.5873334],[109.1062868,13.5849765],[109.1059626,13.5848324],[109.1056268,13.5847162],[109.1054553,13.5846689],[109.1051154,13.5845976],[109.1047705,13.5845546],[109.104597,13.5845437],[109.1007775,13.5844603],[109.1003054,13.5843247],[109.1000882,13.5839493],[109.1000623,13.5838821],[109.1000461,13.5838122],[109.1000399,13.5837407],[109.10005,13.5836303],[109.100064,13.5835765],[109.1001177,13.5834656],[109.1001365,13.583407],[109.100158,13.5832748],[109.1001586,13.5832078],[109.099993,13.5826622],[109.0997297,13.5815929],[109.0996418,13.5808657],[109.0992909,13.5799246],[109.0986336,13.5788554],[109.0980638,13.5782568],[109.0974506,13.577872],[109.0968811,13.5777011],[109.0964868,13.5775301],[109.0963114,13.5770597],[109.0962674,13.5765035],[109.0962669,13.5753485],[109.0960477,13.5747497],[109.0956095,13.5742366],[109.0949085,13.5737235],[109.0944267,13.5732958],[109.0940322,13.5729109],[109.0935504,13.5725689],[109.0927499,13.5725385],[109.0900911,13.5725693],[109.0884709,13.5723986],[109.0877701,13.5718852],[109.0869816,13.5711151],[109.0850941,13.569079],[109.0842658,13.5685908],[109.0837403,13.5683341],[109.0831709,13.5681203],[109.0820762,13.5680779],[109.0787922,13.5681646],[109.07501,13.5685163],[109.062547,13.5690251],[109.0587812,13.5692828],[109.0554533,13.5693692],[109.0534828,13.5693697],[109.0530012,13.5692842],[109.052826,13.5690274],[109.0526506,13.5681715],[109.0524315,13.5672727],[109.0519059,13.5664168],[109.0513365,13.5656892],[109.050986,13.5650045],[109.0507668,13.5638061],[109.0505038,13.5626505],[109.050241,13.5621798],[109.0497154,13.561709],[109.0484455,13.5613241],[109.0464532,13.5607466],[109.0451394,13.5598481],[109.044789,13.5595057],[109.0446575,13.5590778],[109.0446574,13.5584786],[109.0445261,13.5579222],[109.0441318,13.5572802],[109.0437376,13.5568095],[109.0432997,13.5563388],[109.0427742,13.5558252],[109.0423362,13.5550977],[109.0417667,13.5539421],[109.0414161,13.5517165],[109.0412844,13.5499616],[109.0411967,13.5490628],[109.0410215,13.548592],[109.0403646,13.5478646],[109.0377153,13.5460887],[109.0371899,13.5457464],[109.0364894,13.545447],[109.0351319,13.5449335],[109.0345626,13.5444627],[109.0339934,13.5438636],[109.0336869,13.5434784],[109.0334678,13.5430505],[109.0333364,13.5426653],[109.0332926,13.5422373],[109.0333143,13.5411383],[109.0334892,13.5387859],[109.0332701,13.5379305],[109.0320876,13.5353218],[109.0317373,13.5346802],[109.0310367,13.5337821],[109.0304236,13.5332689],[109.0298544,13.532713],[109.0295479,13.5322853],[109.0288035,13.5315155],[109.0275337,13.5307459],[109.0267018,13.5300616],[109.026264,13.529634],[109.0258262,13.5292919],[109.0245127,13.5289071],[109.0226215,13.5284796],[109.0217716,13.5283838],[109.0208179,13.5276919],[109.019326,13.5264256],[109.0188156,13.525965],[109.0183445,13.52585],[109.0177557,13.5259267],[109.0171669,13.5260419],[109.0163425,13.5262339],[109.0148901,13.5262724],[109.014419,13.5262723],[109.0140264,13.5259653],[109.0135946,13.5254665],[109.0130842,13.5247757],[109.0124561,13.5241616],[109.0115728,13.5239122],[109.0101989,13.5239123],[109.0090212,13.5239891],[109.0079613,13.5237973],[109.0074117,13.5233368],[109.0065873,13.5229913],[109.0060771,13.522953],[109.0045853,13.5230298],[108.9998551,13.5230873],[108.9986382,13.5228955],[108.9981278,13.5225885],[108.9976175,13.5221279],[108.997382,13.5217058],[108.9973428,13.5209383],[108.997225,13.5191344],[108.9964006,13.5181367],[108.9946735,13.5168701],[108.9936137,13.5165247],[108.9871563,13.5167355],[108.9834272,13.5167353],[108.9728874,13.517099],[108.9694653,13.5172515],[108.9650756,13.5176737],[108.9627204,13.5178269],[108.9622493,13.5177885],[108.9618568,13.5175581],[108.9613859,13.5170591],[108.9605224,13.5157925],[108.9595412,13.5152167],[108.9590702,13.5152166],[108.9586579,13.5153509],[108.9581083,13.5158114],[108.9560273,13.5186125],[108.9521599,13.5228879],[108.9500564,13.5250733],[108.9493337,13.5259698],[108.9490537,13.5263301],[108.9493067,13.525516],[108.9490466,13.5231902],[108.9503944,13.5220386],[108.9504181,13.5209774],[108.9492357,13.5207967],[108.9490702,13.5190806],[108.9482899,13.5183355]]]}},{"type":"Feature","properties":{"name":"Xuân Phước","fullName":"Xã Xuân Phước","code":"22111","areaKm2":102.81,"source":"OpenStreetMap","osmType":"relation","osmId":19392092,"adminLevel":6},"geometry":{"type":"Polygon","coordinates":[[[109.0085416,13.2881084],[109.0091564,13.2869117],[109.0104806,13.2859859],[109.0113792,13.2826666],[109.0113556,13.2819215],[109.0119467,13.2811538],[109.0121359,13.278828],[109.0127271,13.2780377],[109.0140986,13.2771796],[109.0149972,13.2751249],[109.0146661,13.2733636],[109.0156593,13.2726862],[109.0163923,13.271512],[109.0185678,13.269954],[109.0188043,13.2681928],[109.0185678,13.2675154],[109.0176692,13.266725],[109.0169598,13.2654154],[109.0165578,13.2638574],[109.0168889,13.2628413],[109.0188516,13.2623671],[109.0198447,13.2614865],[109.0197501,13.2604026],[109.0189225,13.2586188],[109.0191117,13.257693],[109.0187806,13.2566769],[109.019892,13.2557511],[109.0207669,13.2555027],[109.0215,13.2563382],[109.0224222,13.2566995],[109.0224222,13.2580769],[109.0227769,13.2585059],[109.025449,13.2564059],[109.0258983,13.2551414],[109.026986,13.255006],[109.0279555,13.2553221],[109.0288305,13.2549156],[109.0287595,13.2541931],[109.0305094,13.2528834],[109.0306276,13.2519125],[109.0312188,13.251077],[109.033347,13.2515738],[109.0344347,13.2512125],[109.0361846,13.2496545],[109.0361609,13.2486609],[109.0387621,13.2458836],[109.039235,13.2434675],[109.0401336,13.2421127],[109.0422145,13.2422256],[109.0424273,13.2400805],[109.0427347,13.2394482],[109.0436569,13.2401256],[109.0450521,13.2402837],[109.045525,13.2409611],[109.0483153,13.2398773],[109.0506327,13.2394934],[109.0517441,13.2399902],[109.0530683,13.2399676],[109.0544398,13.2393128],[109.0552675,13.2398547],[109.0573247,13.2427449],[109.0575848,13.2436482],[109.0598076,13.2458384],[109.0603515,13.2471029],[109.0609663,13.2475997],[109.0625743,13.2501061],[109.0653882,13.2505125],[109.0693136,13.2499932],[109.0706378,13.2503319],[109.0717492,13.2502415],[109.0722931,13.2485255],[109.073972,13.24769],[109.0748706,13.2478255],[109.077046,13.2466965],[109.0776372,13.2474642],[109.0800728,13.2477352],[109.0815862,13.2475997],[109.0832415,13.2480061],[109.0875688,13.2475094],[109.0887984,13.2478481],[109.0904774,13.2473965],[109.0916597,13.2464029],[109.0923927,13.246561],[109.0934332,13.2460642],[109.0938352,13.2466965],[109.0939771,13.2478932],[109.095656,13.2480061],[109.0955378,13.2489771],[109.0982098,13.2492932],[109.0983044,13.2522512],[109.0992503,13.2534705],[109.1008346,13.2534931],[109.1026081,13.2547802],[109.1033412,13.2548931],[109.104689,13.2573317],[109.1055876,13.2582349],[109.1071956,13.2590704],[109.1080941,13.2604478],[109.1093711,13.2607413],[109.1099859,13.2618026],[109.1100332,13.2636767],[109.1091582,13.2646251],[109.1098913,13.2666799],[109.1089927,13.2694572],[109.1083306,13.2708346],[109.1079759,13.272912],[109.1062024,13.2741088],[109.1061788,13.2758474],[109.1057768,13.2769764],[109.1059186,13.2780829],[109.1067936,13.2792796],[109.1066044,13.2805667],[109.1067226,13.2837505],[109.1076449,13.2839763],[109.107432,13.2853537],[109.1068172,13.2860311],[109.1070773,13.28926],[109.1080232,13.2899826],[109.1068645,13.2907503],[109.1067226,13.2919245],[109.1057531,13.293347],[109.1049018,13.2941148],[109.1036249,13.2945212],[109.103152,13.2952889],[109.1037904,13.297976],[109.1035303,13.2991953],[109.1038377,13.300234],[109.1044289,13.3006856],[109.1045471,13.3021081],[109.1043107,13.3032371],[109.1046181,13.304479],[109.1057531,13.3049306],[109.1051383,13.3074822],[109.1044526,13.3080467],[109.1052565,13.3108466],[109.1062024,13.313353],[109.1064389,13.3158368],[109.110246,13.3170562],[109.1109554,13.3185465],[109.1120431,13.3198561],[109.1126107,13.3219335],[109.1131545,13.3226335],[109.1130363,13.3239431],[109.1114047,13.3255463],[109.1122087,13.3273075],[109.1109554,13.3274204],[109.1092528,13.3281204],[109.1104352,13.3296333],[109.1111446,13.3311236],[109.1121377,13.3313946],[109.1116648,13.3342848],[109.1120195,13.3371299],[109.1115229,13.338146],[109.1119013,13.3391621],[109.1112864,13.3404718],[109.1093711,13.3404492],[109.1088508,13.3413976],[109.109442,13.3426395],[109.1103879,13.3431362],[109.1092528,13.3443104],[109.1081414,13.3442201],[109.1077631,13.3463652],[109.107834,13.3480813],[109.1085198,13.3487587],[109.1071246,13.3499103],[109.1079523,13.3505877],[109.1072429,13.351536],[109.1079286,13.3527779],[109.1078813,13.3533199],[109.1062024,13.3530715],[109.104689,13.352078],[109.1040269,13.3513328],[109.1037432,13.3503167],[109.1022298,13.3517167],[109.0986828,13.3536811],[109.0973822,13.3536134],[109.095987,13.3531844],[109.0942608,13.3541779],[109.0938115,13.356323],[109.0920144,13.3569553],[109.0910449,13.3577004],[109.0892004,13.3580391],[109.0883965,13.3591681],[109.0875925,13.3587391],[109.0853933,13.3587165],[109.0831705,13.3593262],[109.0823429,13.3598455],[109.0812788,13.3595068],[109.0808295,13.3574294],[109.0808768,13.3563908],[109.0815626,13.3535908],[109.081468,13.3523038],[109.0809714,13.3518747],[109.0805931,13.3498425],[109.0798837,13.3486232],[109.0783466,13.3477877],[109.0773771,13.3476071],[109.074705,13.3459587],[109.0723167,13.3460942],[109.0710871,13.3458684],[109.0694791,13.3461845],[109.0665469,13.3456652],[109.0653646,13.3465458],[109.0640167,13.346749],[109.0623142,13.3473813],[109.0604461,13.3488942],[109.058578,13.3495716],[109.0585307,13.3475845],[109.0592165,13.3464103],[109.0593583,13.345191],[109.0590036,13.3436556],[109.0598549,13.341375],[109.0584598,13.3410589],[109.0577031,13.341375],[109.0551256,13.3405621],[109.0547945,13.3400653],[109.0525954,13.3390041],[109.0515076,13.3382815],[109.0516022,13.3370622],[109.0509165,13.3367912],[109.0481025,13.3376493],[109.0463054,13.3386879],[109.0458324,13.3383492],[109.0447683,13.3386654],[109.0437279,13.3380557],[109.0422145,13.3403137],[109.0414341,13.3409008],[109.0409849,13.3424137],[109.0404173,13.3409459],[109.0382418,13.3417137],[109.0366102,13.3429556],[109.0358535,13.3427749],[109.0343401,13.343791],[109.0334889,13.3446717],[109.0321646,13.3449878],[109.0310533,13.3445814],[109.0288778,13.3425717],[109.0280974,13.3405169],[109.0280501,13.3379202],[109.026584,13.3349622],[109.0268678,13.3342848],[109.026584,13.3323429],[109.0273171,13.3315752],[109.0293507,13.3308978],[109.0293034,13.3292494],[109.0297054,13.3275559],[109.0277191,13.3265172],[109.0280501,13.3248463],[109.0274353,13.3236496],[109.0286413,13.3213238],[109.0280501,13.3181626],[109.0280501,13.3141659],[109.0275299,13.3123143],[109.0272461,13.3097628],[109.026253,13.308566],[109.0253071,13.3066919],[109.0236755,13.3059693],[109.0228952,13.3052919],[109.0228479,13.3043887],[109.0217128,13.3030565],[109.0207906,13.2998953],[109.0213581,13.2981792],[109.0204595,13.2969824],[109.0202467,13.2953115],[109.0185915,13.2951986],[109.0176456,13.2948373],[109.0171254,13.2941599],[109.0166997,13.2921051],[109.0157066,13.2918567],[109.0154701,13.2910213],[109.0146188,13.2916084],[109.0129399,13.2912471],[109.0115684,13.2920825],[109.0106462,13.2920374],[109.0095348,13.2914277],[109.0094875,13.2901858],[109.0085416,13.2881084]]]}},{"type":"Feature","properties":{"name":"Xuân Thọ","fullName":"Xã Xuân Thọ","code":"22075","areaKm2":192.12,"source":"OpenStreetMap","osmType":"relation","osmId":19392091,"adminLevel":6},"geometry":{"type":"Polygon","coordinates":[[[109.0906665,13.4660625],[109.0911631,13.4648431],[109.0919908,13.4642109],[109.0932204,13.4641657],[109.0946392,13.4628335],[109.0964836,13.4627432],[109.0979024,13.460869],[109.0990611,13.460869],[109.0997942,13.4604174],[109.1009055,13.4591078],[109.1010001,13.4584304],[109.1026318,13.4584304],[109.1030101,13.4581143],[109.1043343,13.4550208],[109.1055167,13.4550434],[109.1063206,13.4556982],[109.1073138,13.455924],[109.1082833,13.4541402],[109.1095366,13.4527854],[109.1101987,13.4524467],[109.111783,13.4530563],[109.113793,13.4532595],[109.114597,13.4510918],[109.1157557,13.4495112],[109.1170799,13.4485855],[109.1193027,13.4465532],[109.119681,13.4458533],[109.1189243,13.4451533],[109.1206269,13.4439339],[109.1207451,13.4430307],[109.121289,13.442692],[109.1211471,13.4416985],[109.12162,13.4408405],[109.1220457,13.4385373],[109.1226605,13.4381308],[109.12363,13.4363922],[109.1229443,13.4354664],[109.1234408,13.4348341],[109.1228497,13.43366],[109.1238192,13.4308149],[109.1235118,13.4297988],[109.1246705,13.4298214],[109.1265622,13.4302504],[109.1274844,13.4308149],[109.1280519,13.4293698],[109.1290924,13.4288278],[109.1301092,13.4274956],[109.1308422,13.4259602],[109.1334434,13.4256666],[109.1329468,13.4247408],[109.1333724,13.424086],[109.1346257,13.4234312],[109.1368249,13.4227086],[109.135879,13.420857],[109.1355479,13.41957],[109.1364465,13.4184636],[109.1368249,13.4172442],[109.1381727,13.4142411],[109.1382437,13.4125701],[109.1394969,13.4132927],[109.1400881,13.4129766],[109.1419562,13.4132475],[109.1439189,13.4122314],[109.1458815,13.4120508],[109.1472294,13.4112153],[109.1519351,13.411125],[109.1540869,13.4147378],[109.1537086,13.4160249],[109.1551747,13.4164088],[109.1556003,13.4173571],[109.156759,13.4178313],[109.1579886,13.4162055],[109.1593365,13.4149185],[109.1605188,13.4153927],[109.1610154,13.414783],[109.1615593,13.4125476],[109.1625761,13.4127508],[109.1635693,13.4124347],[109.1643969,13.4101992],[109.16539,13.409138],[109.1660049,13.4096347],[109.167069,13.4113282],[109.169741,13.4094315],[109.1719875,13.408438],[109.1715618,13.4077831],[109.1721766,13.4065412],[109.1723422,13.4053219],[109.1730279,13.4038994],[109.1743758,13.4032445],[109.1746832,13.4021833],[109.1745886,13.3995414],[109.1756291,13.3990221],[109.1755818,13.3976672],[109.1760547,13.3970802],[109.1750379,13.3949351],[109.174896,13.3936254],[109.1761729,13.3931061],[109.1764094,13.3917287],[109.1747541,13.3912319],[109.1730516,13.3900126],[109.1735482,13.3879804],[109.1716091,13.3866933],[109.1701903,13.3852482],[109.1703322,13.384345],[109.1711598,13.3833966],[109.1722712,13.3828321],[109.1711362,13.380845],[109.1708288,13.3791064],[109.1696937,13.3776161],[109.1685351,13.3765548],[109.168204,13.3757194],[109.1694573,13.3737775],[109.1716801,13.3731904],[109.1728151,13.3724904],[109.1746123,13.3723549],[109.1774971,13.3730549],[109.1791761,13.3731452],[109.1809023,13.3735291],[109.1799091,13.3710678],[109.1807367,13.3710227],[109.181257,13.3702324],[109.1822974,13.3698485],[109.1820846,13.3681324],[109.1812097,13.368155],[109.1800983,13.3666647],[109.1821555,13.364339],[109.1824866,13.3630067],[109.1822028,13.3617874],[109.1841182,13.3602294],[109.1850877,13.3598907],[109.1862464,13.3589197],[109.1878307,13.3584456],[109.1889894,13.3574069],[109.1892495,13.3586939],[109.1889421,13.3593939],[109.1893441,13.3600262],[109.1904555,13.3602971],[109.1908812,13.3587843],[109.1951139,13.3594617],[109.1962726,13.3594617],[109.1961544,13.3585585],[109.1971475,13.3581069],[109.1981643,13.3582649],[109.1984245,13.3591004],[109.1992757,13.3592133],[109.1991575,13.3604552],[109.1999142,13.3617197],[109.198992,13.3623068],[109.1979752,13.3622842],[109.1983535,13.362939],[109.1969584,13.3645196],[109.1971948,13.3654906],[109.195847,13.3654454],[109.1963908,13.3665744],[109.1976205,13.367997],[109.2004108,13.368426],[109.2061569,13.3675679],[109.2059914,13.3683357],[109.2068663,13.3696679],[109.2078595,13.3693066],[109.2089472,13.3705937],[109.2087108,13.371113],[109.2103897,13.3719033],[109.2110281,13.3712485],[109.2117612,13.371542],[109.2116193,13.3726936],[109.2137002,13.372671],[109.2141495,13.3735291],[109.2155447,13.3723775],[109.2154028,13.3712937],[109.2161831,13.3713388],[109.2172472,13.3703453],[109.2182877,13.3702324],[109.2192572,13.369284],[109.2180749,13.3686066],[109.2192099,13.3675228],[109.2187606,13.3657164],[109.2180749,13.3654002],[109.2188079,13.3641357],[109.2196355,13.3640454],[109.2207469,13.3630745],[109.2221421,13.3631648],[109.2235609,13.3637067],[109.2240338,13.3648132],[109.2250743,13.3658067],[109.2253107,13.3653551],[109.2262803,13.3654906],[109.2272971,13.3664615],[109.2281956,13.3656035],[109.2298273,13.365897],[109.2302529,13.3665292],[109.2316008,13.3668905],[109.2333506,13.3674099],[109.2403973,13.3701195],[109.240421,13.3809354],[109.2394515,13.3825611],[109.2396643,13.3834418],[109.2333033,13.3837127],[109.2320973,13.3840514],[109.2311988,13.3839159],[109.2268005,13.3840514],[109.2261857,13.3842998],[109.225358,13.3837579],[109.2242703,13.3841869],[109.2220238,13.3846385],[109.2201321,13.3844579],[109.2172236,13.3852708],[109.2153082,13.3844804],[109.2146697,13.3845708],[109.2141968,13.3859933],[109.2131563,13.3857901],[109.2112173,13.3860159],[109.2113828,13.3866933],[109.2120213,13.3926545],[109.2125179,13.3949576],[109.2132273,13.4003091],[109.2129199,13.4022736],[109.2128726,13.4101766],[109.2133455,13.413225],[109.2144333,13.4214893],[109.2154974,13.4251473],[109.2169162,13.4312665],[109.2174364,13.433231],[109.2172236,13.4393276],[109.2168689,13.4423533],[109.2151663,13.4429404],[109.2121868,13.4437081],[109.2100113,13.4461016],[109.2095384,13.4482016],[109.2062752,13.4553369],[109.2073393,13.4566917],[109.2055658,13.4585659],[109.2038868,13.460011],[109.202137,13.4610948],[109.20287,13.4622916],[109.2025153,13.4628561],[109.2035794,13.4631496],[109.2033903,13.4639174],[109.2044544,13.4647754],[109.2043125,13.4653851],[109.2047618,13.4670108],[109.205282,13.4678237],[109.2051874,13.4686366],[109.2058732,13.4701721],[109.205684,13.4707366],[109.2065826,13.4714365],[109.2074102,13.4729043],[109.208025,13.4733107],[109.2067954,13.4758171],[109.2079304,13.4779622],[109.2089709,13.4788428],[109.2094202,13.4799718],[109.2091364,13.482546],[109.209964,13.4836524],[109.210839,13.4842169],[109.2115247,13.4872878],[109.2110281,13.4879426],[109.2097512,13.4881233],[109.2079777,13.4878749],[109.2070555,13.4894329],[109.2063697,13.4893426],[109.2057076,13.490878],[109.2056603,13.4916909],[109.206086,13.4934748],[109.2046199,13.4941522],[109.2049746,13.4963199],[109.2058022,13.4980359],[109.2057076,13.4991875],[109.2051165,13.5002036],[109.2052347,13.5014907],[109.2028227,13.5010391],[109.2008364,13.5018746],[109.2010256,13.5028229],[109.2006945,13.503681],[109.2010492,13.5042681],[109.2006472,13.5060067],[109.1999615,13.5068422],[109.200529,13.5082196],[109.2007418,13.5124421],[109.2014985,13.5132775],[109.2016877,13.5153097],[109.2009783,13.5175903],[109.2015931,13.5187193],[109.2032011,13.5191032],[109.2035794,13.5195774],[109.2034848,13.5210903],[109.2047854,13.5229193],[109.2030592,13.5235063],[109.2022316,13.5244321],[109.2019005,13.5264192],[109.2012148,13.5278869],[109.2013094,13.5321319],[109.1984954,13.5319287],[109.1975495,13.5314094],[109.1961071,13.5318384],[109.1940025,13.5312739],[109.1930567,13.5300997],[109.191827,13.5294901],[109.19029,13.5292191],[109.1892968,13.5279998],[109.1880672,13.525245],[109.1868849,13.5243644],[109.1870504,13.5231451],[109.1866957,13.5219483],[109.1869795,13.5212032],[109.186341,13.5212935],[109.1863174,13.5196903],[109.1868139,13.5172968],[109.186341,13.5164613],[109.1840236,13.5164839],[109.1838345,13.5179968],[109.1824157,13.5180419],[109.1818954,13.5193742],[109.1793179,13.5207741],[109.1779464,13.5226483],[109.1781829,13.5233483],[109.1764567,13.5251547],[109.1758419,13.5254482],[109.1748487,13.527074],[109.1743285,13.5288578],[109.1734299,13.5310029],[109.1730752,13.5313416],[109.1704031,13.5306191],[109.1697647,13.531161],[109.1701667,13.5321094],[109.1694809,13.5330577],[109.1681567,13.5327868],[109.1673291,13.5345029],[109.1667616,13.5382512],[109.166194,13.540464],[109.16539,13.5410059],[109.1636875,13.5410963],[109.1622214,13.5408027],[109.1617721,13.542293],[109.1613228,13.5456574],[109.1603297,13.5473284],[109.1600695,13.5489316],[109.1590291,13.5498574],[109.1582488,13.5511444],[109.1586507,13.5529734],[109.1577285,13.5538089],[109.1572083,13.5552992],[109.1556949,13.5566314],[109.1526918,13.5616668],[109.1486246,13.5682827],[109.1472767,13.568486],[109.1452431,13.5711956],[109.1435642,13.5715343],[109.1418852,13.5721665],[109.141365,13.5735665],[109.1415069,13.5748761],[109.1405374,13.575689],[109.1412941,13.5772922],[109.1413414,13.5785115],[109.1420271,13.5807921],[109.1416488,13.5815599],[109.1402773,13.5820792],[109.1406793,13.584134],[109.1398753,13.5849243],[109.1395915,13.5858501],[109.1398043,13.5885823],[109.1387639,13.5906597],[109.1372269,13.590908],[109.1365884,13.5912919],[109.1368012,13.5924886],[109.1351932,13.5929628],[109.1329941,13.596237],[109.1325921,13.5964628],[109.1329468,13.5984498],[109.1319063,13.6001207],[109.1312915,13.6005046],[109.12992,13.6036658],[109.1301328,13.6040723],[109.129116,13.6066916],[109.1297545,13.6081367],[109.1286195,13.6093334],[109.1288559,13.6107334],[109.1278628,13.6119076],[109.127579,13.6133753],[109.1267987,13.6136688],[109.1263021,13.6154526],[109.1254272,13.6163333],[109.1254508,13.617959],[109.1265149,13.6192687],[109.1263416,13.6203167],[109.1261145,13.6203449],[109.1256577,13.6203766],[109.1253018,13.6203782],[109.1251239,13.6203714],[109.124617,13.6201837],[109.123807,13.6203167],[109.1236225,13.6203625],[109.1234493,13.6203776],[109.123292,13.6203688],[109.1227277,13.6197547],[109.1226607,13.6196947],[109.1225874,13.619642],[109.1224446,13.6195682],[109.12231,13.6195264],[109.1222405,13.6195138],[109.1216719,13.6195007],[109.121583,13.6194931],[109.1214092,13.6194538],[109.1213259,13.6194225],[109.1211693,13.6193373],[109.1210979,13.6192844],[109.1207931,13.6189415],[109.120723,13.6188964],[109.1206419,13.6188751],[109.1206017,13.6188741],[109.1205229,13.6188899],[109.1201741,13.6190733],[109.120097,13.6191054],[109.1199352,13.6191475],[109.1197951,13.6191591],[109.1196549,13.6191488],[109.1193564,13.6190682],[109.1190648,13.6189663],[109.1189006,13.6188983],[109.118582,13.6187422],[109.1184239,13.618652],[109.1182708,13.6185539],[109.1181231,13.6184484],[109.1179812,13.6183355],[109.1178441,13.6182143],[109.1177136,13.6180864],[109.1175902,13.617952],[109.1174028,13.6177281],[109.1173388,13.617639],[109.117283,13.6175449],[109.1172355,13.6174466],[109.1171719,13.6172586],[109.117099,13.6168534],[109.1170313,13.6166453],[109.1169351,13.616443],[109.1168577,13.6162561],[109.1168092,13.6161671],[109.1166937,13.6159998],[109.1166242,13.615919],[109.1165041,13.6157977],[109.1164351,13.6156912],[109.1163975,13.6155715],[109.1163933,13.6154471],[109.1163823,13.6153889],[109.1163624,13.6153329],[109.1163009,13.6152351],[109.1162163,13.6151604],[109.1161006,13.6151402],[109.1159964,13.6150874],[109.1159164,13.615011],[109.1158857,13.6149652],[109.1158462,13.6148632],[109.1152138,13.6147199],[109.1151461,13.6146729],[109.1151002,13.6146],[109.1150898,13.6145582],[109.1150905,13.614506],[109.1151061,13.6143904],[109.1151451,13.6142674],[109.1152159,13.614116],[109.1152517,13.6140202],[109.1153014,13.6138215],[109.1153499,13.61326],[109.1154009,13.6129654],[109.1157814,13.611908],[109.1158028,13.6117633],[109.1157886,13.6116178],[109.1157684,13.6115473],[109.1157039,13.6114172],[109.1156604,13.6113585],[109.1155538,13.6112579],[109.1151085,13.6109529],[109.1150315,13.6108658],[109.1149847,13.6107609],[109.1149718,13.6106479],[109.1150308,13.6102126],[109.1150338,13.6097414],[109.1150469,13.6095061],[109.1150925,13.6090629],[109.1152735,13.6083356],[109.1154038,13.6080082],[109.115489,13.6078024],[109.1155833,13.6076004],[109.115785,13.6072316],[109.1158973,13.6070535],[109.1161439,13.6067115],[109.1160661,13.6065081],[109.1160414,13.6063986],[109.1160446,13.6062866],[109.1160578,13.6062277],[109.1161072,13.6061174],[109.1161841,13.6060233],[109.1165435,13.6057391],[109.1170156,13.604738],[109.1170866,13.6046317],[109.1171294,13.6045838],[109.1172257,13.6045018],[109.1173334,13.604439],[109.1173911,13.6044148],[109.1179195,13.6042636],[109.1179608,13.6042374],[109.1180254,13.6041656],[109.1180465,13.6041222],[109.118059,13.6040759],[109.1180588,13.6039898],[109.1180478,13.603948],[109.1171963,13.6020437],[109.1170762,13.6018483],[109.1169311,13.6016696],[109.1167635,13.6015106],[109.1166661,13.601435],[109.1164563,13.6013044],[109.116345,13.6012499],[109.1157155,13.6011258],[109.1156459,13.6011055],[109.1155165,13.6010418],[109.1154586,13.6009991],[109.1154063,13.6009501],[109.1153265,13.6008445],[109.1152725,13.6007244],[109.115245,13.6005981],[109.1152395,13.6005347],[109.1152453,13.6004078],[109.1152742,13.6002286],[109.1152785,13.6001379],[109.1152668,13.5999568],[109.1152293,13.5997183],[109.1152226,13.5995978],[109.1152335,13.5993544],[109.1152775,13.5991122],[109.1152561,13.5986325],[109.1147625,13.5983078],[109.1145754,13.5981487],[109.1144912,13.5980598],[109.1143508,13.5978759],[109.1142432,13.5976866],[109.1141617,13.5974854],[109.1136575,13.5971491],[109.1135518,13.5970398],[109.1135066,13.5969789],[109.1134317,13.5968431],[109.1133819,13.5966926],[109.1133678,13.5966146],[109.1133678,13.5954467],[109.1131639,13.5947689],[109.1132283,13.5937677],[109.1132443,13.5934151],[109.1132905,13.5930651],[109.1133249,13.5928918],[109.1134088,13.5925726],[109.113518,13.5922608],[109.1135126,13.5918255],[109.1135305,13.5916919],[109.1135736,13.5915718],[109.113636,13.5914683],[109.1144675,13.5907904],[109.1146585,13.5905848],[109.1148215,13.5903577],[109.1148922,13.5902364],[109.1150093,13.5899822],[109.1152158,13.5896251],[109.1153174,13.5894735],[109.1153767,13.5894037],[109.1154414,13.5893385],[109.1155824,13.5892251],[109.1157365,13.5891347],[109.1159732,13.5890356],[109.1160396,13.5889963],[109.1161454,13.5889083],[109.1162217,13.5888143],[109.1163372,13.588598],[109.116405,13.5884954],[109.1165669,13.5882951],[109.1166615,13.588199],[109.1175789,13.5874794],[109.1176774,13.5874092],[109.1178593,13.5872509],[109.1179419,13.5871634],[109.1180885,13.5869736],[109.1181533,13.5868696],[109.1182609,13.5866501],[109.1183031,13.5865356],[109.118319,13.586435],[109.118327,13.5862318],[109.1183031,13.5860298],[109.118252,13.5858454],[109.1182164,13.5857564],[109.1181743,13.58567],[109.1177505,13.5849609],[109.1175779,13.5847493],[109.117482,13.5846515],[109.1173804,13.5845594],[109.1171875,13.5844117],[109.1170853,13.5843456],[109.116938,13.5822824],[109.1161577,13.5808373],[109.1158975,13.5793018],[109.1158503,13.5772245],[109.1167488,13.5756213],[109.1163941,13.5738375],[109.1167252,13.5725052],[109.1163705,13.5713762],[109.106628,13.5477122],[109.1054221,13.546809],[109.1039323,13.5461994],[109.1012839,13.5458381],[109.1016386,13.5445284],[109.1011657,13.543851],[109.1007164,13.5412317],[109.1008583,13.5399447],[109.1054457,13.5301901],[109.1182859,13.510297],[109.1180021,13.5086938],[109.1202012,13.5069099],[109.121289,13.5040423],[109.1213126,13.5030036],[109.1207451,13.5010391],[109.1206269,13.4991875],[109.1202249,13.4983746],[109.1205086,13.4970424],[109.119681,13.4953941],[109.1198465,13.4948973],[109.1188061,13.4941747],[109.1186169,13.4935425],[109.1191135,13.4925941],[109.1187824,13.4902684],[109.1183804,13.4897265],[109.1182149,13.4862943],[109.1173163,13.4860685],[109.1162522,13.4853233],[109.1158739,13.4844879],[109.1144551,13.4829524],[109.1126343,13.482704],[109.1124451,13.4818234],[109.1116411,13.4808299],[109.1103406,13.4809879],[109.10904,13.4793848],[109.1093474,13.4784815],[109.1089454,13.4776461],[109.1066517,13.4772396],[109.1056822,13.4756139],[109.1064625,13.4748687],[109.1063679,13.4743268],[109.1041688,13.4744623],[109.1025372,13.4733333],[109.1018751,13.472272],[109.100811,13.4718656],[109.100007,13.4723849],[109.0973349,13.4720914],[109.0953486,13.4710753],[109.0946628,13.4699237],[109.094852,13.4679818],[109.0939534,13.4673495],[109.0929839,13.4673721],[109.0921326,13.466627],[109.0906665,13.4660625]]]}},{"type":"Feature","properties":{"name":"Xuân Đài","fullName":"Phường Xuân Đài","code":"22076","areaKm2":13.4,"source":"OpenStreetMap","osmType":"relation","osmId":19392095,"adminLevel":6},"geometry":{"type":"MultiPolygon","coordinates":[[[[109.2112173,13.3860159],[109.2131563,13.3857901],[109.2141968,13.3859933],[109.2146697,13.3845708],[109.2153082,13.3844804],[109.2172236,13.3852708],[109.2201321,13.3844579],[109.2220238,13.3846385],[109.2242703,13.3841869],[109.225358,13.3837579],[109.2261857,13.3842998],[109.2268005,13.3840514],[109.2311988,13.3839159],[109.2320973,13.3840514],[109.2333033,13.3837127],[109.2396643,13.3834418],[109.2394515,13.3825611],[109.240421,13.3809354],[109.2403973,13.3701195],[109.2333506,13.3674099],[109.2316008,13.3668905],[109.2320264,13.3647906],[109.2326649,13.3634583],[109.232925,13.3610648],[109.2354079,13.3611326],[109.2377725,13.3616294],[109.2407047,13.3635035],[109.241556,13.3637745],[109.243566,13.3642712],[109.2452212,13.3642712],[109.2490284,13.3633454],[109.2500688,13.362668],[109.2515349,13.3598681],[109.2523625,13.3586488],[109.2547168,13.3607852],[109.2542914,13.3613021],[109.2540603,13.3616736],[109.2539718,13.3618641],[109.2537796,13.3621434],[109.2529929,13.3630325],[109.2519324,13.3640795],[109.2510078,13.3651264],[109.2497668,13.3665411],[109.2493459,13.3673617],[109.2488822,13.3682977],[109.2487237,13.3687154],[109.2477428,13.3711468],[109.2472117,13.3726891],[109.2465188,13.3748204],[109.2459484,13.3766418],[109.2454607,13.3785246],[109.245263,13.3794507],[109.245078,13.3803912],[109.2446757,13.3832025],[109.2444545,13.3846271],[109.2442217,13.3860531],[109.2441572,13.3862144],[109.244191,13.3863569],[109.2442899,13.3864265],[109.2444357,13.3865912],[109.2444865,13.3867624],[109.2444546,13.3868524],[109.2444487,13.3870057],[109.244307,13.387229],[109.2442362,13.3873076],[109.2443254,13.3874406],[109.2444634,13.3875153],[109.2445862,13.3875609],[109.2446731,13.3874818],[109.2447562,13.3875222],[109.2448288,13.3875093],[109.2448793,13.3875634],[109.2448989,13.3876401],[109.2449185,13.3877167],[109.2449608,13.3878053],[109.2449604,13.3879383],[109.2448946,13.3879434],[109.2446985,13.3878052],[109.2448792,13.3880181],[109.244832,13.3881364],[109.244797,13.3883124],[109.2447085,13.3883128],[109.2446087,13.3884454],[109.2445676,13.3885122],[109.2444486,13.3885799],[109.2443876,13.3886652],[109.2443464,13.3885799],[109.2441376,13.3882966],[109.2440016,13.3882126],[109.2434975,13.3882718],[109.2434225,13.388247],[109.2433474,13.3881781],[109.2431836,13.3881586],[109.2428169,13.3884297],[109.2426194,13.3886562],[109.2424785,13.3888716],[109.242153,13.3895726],[109.2421458,13.3896232],[109.2423327,13.3899526],[109.2423001,13.3900897],[109.2422625,13.3901858],[109.2421779,13.3901925],[109.2421079,13.3900157],[109.2420105,13.3900044],[109.2419619,13.3898776],[109.2418906,13.389905],[109.2419147,13.3900417],[109.2418724,13.3900781],[109.2417311,13.3899336],[109.2414381,13.3900386],[109.2413025,13.3899524],[109.2411144,13.3900193],[109.2408315,13.3902665],[109.2406154,13.3904547],[109.2403756,13.3905752],[109.2401768,13.3906577],[109.2400887,13.390814],[109.2398489,13.3907346],[109.239598,13.3907428],[109.2393938,13.390836],[109.2390865,13.3912063],[109.2390319,13.3912511],[109.2389687,13.391213],[109.2389203,13.3908787],[109.239028,13.3908645],[109.2389144,13.3906007],[109.2388216,13.3904135],[109.2387592,13.3903349],[109.2387257,13.3902072],[109.2387146,13.3900556],[109.2388238,13.3899814],[109.2388408,13.389904],[109.2388011,13.3897986],[109.2386339,13.3896404],[109.2384263,13.3895213],[109.2382598,13.38952],[109.2379854,13.3896294],[109.2375024,13.3898852],[109.2371843,13.3901784],[109.2369643,13.3905516],[109.2366694,13.3910361],[109.2364992,13.3915192],[109.2364583,13.3917127],[109.2364906,13.3920484],[109.2365906,13.3923128],[109.2366675,13.3924674],[109.2363416,13.3927534],[109.2360388,13.3931053],[109.2357226,13.393243],[109.2352797,13.3933055],[109.2348243,13.3932873],[109.2345702,13.3932178],[109.2343501,13.3930201],[109.2342585,13.3929627],[109.2331604,13.3927244],[109.2318718,13.3925461],[109.2309894,13.3924289],[109.2305653,13.3923217],[109.2288763,13.3917687],[109.2282446,13.3916062],[109.2275336,13.3912565],[109.2273096,13.391017],[109.2271026,13.3908215],[109.2269145,13.3905023],[109.2270209,13.3902617],[109.2270371,13.3901327],[109.2268018,13.3899676],[109.2259967,13.3891043],[109.2255761,13.3890356],[109.2250152,13.3890356],[109.2237362,13.3891645],[109.2233534,13.3892128],[109.2230266,13.3894364],[109.2227039,13.3896839],[109.2223519,13.3899014],[109.2220216,13.3902022],[109.2217149,13.3905645],[109.2213882,13.3908888],[109.221034,13.3911785],[109.2205209,13.3913921],[109.2200563,13.3916557],[109.2196643,13.3920582],[109.2191988,13.3925544],[109.2187345,13.3931084],[109.2183078,13.3934108],[109.2179934,13.3936424],[109.2176401,13.3938246],[109.216973,13.3938444],[109.2162771,13.3938161],[109.2158248,13.3939376],[109.2155136,13.3941473],[109.215442,13.3945378],[109.2155758,13.3950406],[109.2158047,13.3954579],[109.2160224,13.3957748],[109.2161829,13.3960534],[109.2164146,13.3963099],[109.2167656,13.3965669],[109.2172164,13.3968154],[109.2172935,13.3971349],[109.2172639,13.3979895],[109.2172471,13.3984767],[109.2180379,13.3982706],[109.2186432,13.3984049],[109.2193056,13.3984003],[109.2197644,13.398397],[109.2198345,13.398122],[109.2199747,13.3979158],[109.2199747,13.3977783],[109.2200449,13.3974346],[109.2203293,13.3969172],[109.2210681,13.3965541],[109.2214186,13.3964854],[109.2233114,13.3964854],[109.2242929,13.3965541],[109.2247922,13.3966281],[109.2253341,13.3966665],[109.2258496,13.3966666],[109.2263606,13.3966644],[109.2268926,13.3966926],[109.2274054,13.3968816],[109.2278067,13.3972555],[109.2279924,13.3976978],[109.2279038,13.3978724],[109.2279139,13.3981014],[109.2280286,13.3983254],[109.2280704,13.3985039],[109.2280093,13.3989078],[109.2278642,13.3990071],[109.2277708,13.3990589],[109.2276872,13.3995518],[109.2276777,13.3997651],[109.2275018,13.3998769],[109.2273748,13.4000336],[109.2271944,13.400041],[109.2269943,13.400154],[109.2268109,13.4003032],[109.2266966,13.400323],[109.226585,13.400395],[109.2265127,13.4005341],[109.2265064,13.4006493],[109.2265527,13.4007743],[109.2267955,13.4010546],[109.2269275,13.4013088],[109.2271184,13.4013778],[109.227342,13.4013716],[109.2276016,13.4015028],[109.227743,13.401538],[109.2278188,13.4016703],[109.2278239,13.4019815],[109.227902,13.4020884],[109.2278817,13.4021505],[109.2277975,13.4022088],[109.2278131,13.4024106],[109.2279207,13.4026906],[109.2280558,13.4029825],[109.2281324,13.4030212],[109.2281801,13.4032715],[109.2282266,13.4033459],[109.2281849,13.4034591],[109.2282518,13.4036138],[109.2283287,13.40373],[109.2284252,13.4038208],[109.2285952,13.403895],[109.2287277,13.4039687],[109.2287258,13.4040022],[109.2286328,13.4040419],[109.2287655,13.4041515],[109.2291936,13.4046079],[109.2295283,13.4048739],[109.2295778,13.4049515],[109.2296617,13.4056621],[109.22984,13.4056949],[109.2298603,13.4059586],[109.2298098,13.4060742],[109.2298283,13.4061995],[109.2298654,13.4063541],[109.2299791,13.4064907],[109.2300484,13.406561],[109.2301189,13.4068303],[109.2300918,13.4068781],[109.2299393,13.406922],[109.2298097,13.406968],[109.2296768,13.4070407],[109.2296149,13.4071114],[109.2295863,13.4071915],[109.2295777,13.4072823],[109.2295676,13.4076412],[109.2296367,13.4081782],[109.2297526,13.4088652],[109.2298669,13.409335],[109.2300671,13.4094178],[109.2302003,13.4095284],[109.2300937,13.4095565],[109.2298996,13.4095203],[109.2298527,13.4095557],[109.2300189,13.4096366],[109.2300234,13.409678],[109.2299712,13.4098214],[109.2299757,13.4100529],[109.2300044,13.4101088],[109.2301079,13.4101466],[109.2303981,13.4103479],[109.2304457,13.4105166],[109.2304333,13.4105887],[109.2304396,13.4106717],[109.2304819,13.4108123],[109.230563,13.4108645],[109.2306842,13.4109221],[109.2306355,13.411049],[109.2306839,13.4110924],[109.2308284,13.4111246],[109.2309858,13.4110683],[109.2309155,13.4111701],[109.2309169,13.4113099],[109.2310527,13.4114046],[109.2311542,13.411489],[109.2311858,13.4115259],[109.2311976,13.4115545],[109.2311884,13.4115972],[109.2311424,13.411615],[109.2310277,13.4116163],[109.2309674,13.4116759],[109.2308939,13.411819],[109.230674,13.4118356],[109.2304295,13.4119638],[109.2303306,13.4121061],[109.2302891,13.4122326],[109.2302906,13.4123716],[109.2303613,13.4125329],[109.230471,13.4127258],[109.2305148,13.4126687],[109.2305794,13.4126745],[109.2307125,13.4128762],[109.2308326,13.4130779],[109.2308191,13.4133084],[109.2308616,13.4134742],[109.2305903,13.4133227],[109.2305158,13.4133531],[109.2304414,13.4134215],[109.2303133,13.4133459],[109.2302243,13.4133905],[109.2297965,13.4133856],[109.2296151,13.4135107],[109.229474,13.4134309],[109.2294333,13.4133904],[109.2293514,13.4133847],[109.2292544,13.4133932],[109.2291833,13.413427],[109.2290937,13.4135254],[109.228927,13.4134749],[109.2287603,13.4135131],[109.2286447,13.4135672],[109.2280066,13.4143281],[109.2280166,13.4143789],[109.2281349,13.4144537],[109.2280164,13.4144727],[109.2278262,13.4144789],[109.2277712,13.4145738],[109.2274548,13.4142685],[109.2269758,13.4139379],[109.226757,13.4139166],[109.226805,13.4138494],[109.2265407,13.413681],[109.2266139,13.4136132],[109.2263959,13.4134269],[109.2262788,13.4134149],[109.2260801,13.4134533],[109.2256992,13.4136078],[109.2253892,13.413828],[109.2251313,13.4140544],[109.2249629,13.4143443],[109.2244935,13.4145119],[109.2239367,13.4145279],[109.2236278,13.4143434],[109.2236249,13.4143024],[109.2233292,13.4141666],[109.223185,13.4140407],[109.2228717,13.4139275],[109.2226154,13.4140823],[109.2225672,13.4139745],[109.2222716,13.4141209],[109.2222037,13.41428],[109.2219182,13.4145286],[109.2219393,13.4146968],[109.2217713,13.4147443],[109.2212827,13.4149611],[109.2211518,13.4147824],[109.2206349,13.415037],[109.2205193,13.4150433],[109.220001,13.4152259],[109.2198607,13.4152947],[109.2195937,13.4154789],[109.219503,13.4155928],[109.2194709,13.41577],[109.2194132,13.4161182],[109.2194993,13.4161691],[109.2192416,13.4169144],[109.2191794,13.4171792],[109.2191859,13.417504],[109.2192578,13.4178364],[109.2193101,13.4179425],[109.2193753,13.4180359],[109.2194719,13.4181891],[109.219747,13.4184084],[109.219931,13.4185265],[109.2201998,13.4186301],[109.2205947,13.4190279],[109.2209813,13.4192858],[109.2210955,13.4192108],[109.2214666,13.4195011],[109.2222276,13.4199773],[109.2226407,13.4200683],[109.2227267,13.4200616],[109.2228072,13.420016],[109.222817,13.4199321],[109.2227591,13.4198824],[109.2228753,13.4196229],[109.2230385,13.4194855],[109.2232378,13.4196544],[109.2235106,13.4196004],[109.2235162,13.4195286],[109.2236449,13.4195165],[109.2237551,13.419685],[109.2240495,13.4198206],[109.2247631,13.4200535],[109.2252162,13.4201088],[109.2256594,13.4201497],[109.2255021,13.4202558],[109.225398,13.4203778],[109.2253112,13.4205501],[109.2252306,13.4208061],[109.2251527,13.4210381],[109.2251595,13.4212214],[109.2252322,13.4215482],[109.2252806,13.4219187],[109.2252973,13.4220009],[109.2253486,13.422083],[109.2254794,13.4223146],[109.2255225,13.4227514],[109.22552,13.4229035],[109.2253695,13.423718],[109.2253978,13.4239418],[109.2254327,13.4241561],[109.2254849,13.4242302],[109.2255632,13.4242662],[109.2256743,13.4242657],[109.2256874,13.4243694],[109.2256306,13.4244443],[109.2256192,13.4245383],[109.2256421,13.4246945],[109.2257838,13.4248881],[109.2261984,13.4253006],[109.226803,13.4258301],[109.2273658,13.4261226],[109.2279117,13.4262602],[109.2284633,13.4262761],[109.228934,13.4262239],[109.2292909,13.4261592],[109.2293099,13.4261266],[109.2293168,13.4259038],[109.2293586,13.4257424],[109.2294535,13.4256053],[109.2295785,13.4254808],[109.2298149,13.4254119],[109.2300055,13.4253891],[109.2302212,13.4254535],[109.2304093,13.4254207],[109.230526,13.425388],[109.2306305,13.4252488],[109.2309989,13.4246663],[109.2311955,13.4243914],[109.2313873,13.4244154],[109.2316125,13.424418],[109.2317576,13.4243149],[109.2318442,13.4243004],[109.2319736,13.424351],[109.2320772,13.424351],[109.2321779,13.4242814],[109.2322817,13.4242086],[109.2323329,13.4240845],[109.2323906,13.424011],[109.232577,13.4238962],[109.2327927,13.4235377],[109.233014,13.4235209],[109.2331508,13.423542],[109.2331115,13.4236801],[109.2330248,13.4238105],[109.2326812,13.4239251],[109.2326965,13.4240593],[109.232675,13.4242708],[109.2327767,13.4245638],[109.2329407,13.4248691],[109.2333546,13.4254247],[109.2333762,13.4256329],[109.233671,13.4259739],[109.2339559,13.4260359],[109.2343939,13.426234],[109.2346107,13.4265312],[109.2349421,13.4269007],[109.2349264,13.4270061],[109.2348644,13.4270062],[109.2348254,13.4270408],[109.2347944,13.4270914],[109.234877,13.427221],[109.2350162,13.4273979],[109.2350949,13.4274722],[109.2352257,13.4274959],[109.2353115,13.4273914],[109.2353616,13.4274893],[109.2354647,13.4274782],[109.2355158,13.4273468],[109.2357298,13.4274697],[109.2359233,13.427481],[109.2361211,13.4274839],[109.2363613,13.427608],[109.2364885,13.4277101],[109.2366271,13.4278078],[109.2367997,13.4278945],[109.2369157,13.4279261],[109.2370359,13.4279033],[109.2371866,13.4278727],[109.2371052,13.4277814],[109.2371174,13.4277302],[109.2372227,13.4276825],[109.2373687,13.4277578],[109.2373653,13.4278478],[109.2375691,13.4279231],[109.237474,13.4278019],[109.2376535,13.4277725],[109.2377556,13.4278088],[109.2377522,13.4278995],[109.2378559,13.4278888],[109.2378916,13.4277735],[109.238005,13.4277928],[109.2382835,13.4279298],[109.2382945,13.4279719],[109.238196,13.4281263],[109.2381032,13.4280824],[109.2380365,13.4281874],[109.2380163,13.4282983],[109.2380439,13.4284264],[109.2381897,13.4287708],[109.2383549,13.4289178],[109.2387036,13.4295912],[109.2387385,13.4297413],[109.2386849,13.429838],[109.2381312,13.4301273],[109.2379737,13.4302401],[109.2374165,13.4308361],[109.2372469,13.4309215],[109.237182,13.4311086],[109.2369487,13.4312237],[109.2366146,13.4312406],[109.2364427,13.43127],[109.2360167,13.4315502],[109.2358912,13.4316168],[109.2357657,13.4316144],[109.2355473,13.4315324],[109.235284,13.4315123],[109.2347874,13.4316246],[109.2346346,13.4316036],[109.2345207,13.4315697],[109.233747,13.431378],[109.233436,13.4312795],[109.233125,13.4311664],[109.2329347,13.431086],[109.2325002,13.4307437],[109.2322728,13.4305836],[109.2321729,13.4304935],[109.2321209,13.4303469],[109.2320423,13.4300808],[109.2315345,13.4302438],[109.2317933,13.4308969],[109.2314177,13.4310792],[109.2310798,13.4303489],[109.2306335,13.4303794],[109.2302096,13.430488],[109.2298821,13.4306181],[109.2296224,13.4307063],[109.229036,13.430938],[109.2284503,13.4312481],[109.2280038,13.4314835],[109.2276459,13.4317092],[109.2272263,13.4320856],[109.2272358,13.4321865],[109.2279391,13.4328251],[109.2275691,13.4331103],[109.2276148,13.433228],[109.2272904,13.4335736],[109.2265562,13.4329542],[109.226496,13.4330399],[109.2273091,13.4338063],[109.2270975,13.4344446],[109.2268312,13.4343417],[109.2269642,13.4346559],[109.2270753,13.4350013],[109.2271308,13.4354748],[109.2270967,13.43597],[109.2270868,13.436438],[109.2270992,13.4366858],[109.2269851,13.4368559],[109.226769,13.4370389],[109.2264938,13.437241],[109.2263311,13.437756],[109.2262245,13.4382227],[109.2259381,13.4385258],[109.225783,13.4385432],[109.2256454,13.438761],[109.2255965,13.4388765],[109.2255679,13.4389335],[109.2248435,13.4393264],[109.224439,13.4395375],[109.2245428,13.4396225],[109.2244316,13.4397487],[109.2244191,13.439783],[109.224791,13.4401276],[109.2247168,13.4402132],[109.2243318,13.4398806],[109.2242352,13.4400625],[109.2239413,13.4406466],[109.2232676,13.4403257],[109.223157,13.4402756],[109.2227784,13.4410553],[109.2225938,13.4414526],[109.2225413,13.4416825],[109.2225934,13.4418525],[109.2224874,13.4427457],[109.2223702,13.4445853],[109.2223194,13.4453831],[109.2222733,13.4455963],[109.2221848,13.4457384],[109.222607,13.446636],[109.2194937,13.4475468],[109.2172472,13.4476597],[109.2165378,13.447908],[109.215521,13.4456726],[109.2157102,13.4445436],[109.2168689,13.4423533],[109.2172236,13.4393276],[109.2174364,13.433231],[109.2169162,13.4312665],[109.2154974,13.4251473],[109.2144333,13.4214893],[109.2133455,13.413225],[109.2128726,13.4101766],[109.2129199,13.4022736],[109.2132273,13.4003091],[109.2125179,13.3949576],[109.2120213,13.3926545],[109.2113828,13.3866933],[109.2112173,13.3860159]]],[[[109.2270499,13.420026],[109.2270727,13.4199621],[109.2271447,13.419935],[109.2273311,13.4198662],[109.2274755,13.4197826],[109.2275794,13.4196857],[109.227614,13.4195061],[109.2276528,13.4192618],[109.227692,13.4190633],[109.2277625,13.4188713],[109.227867,13.4186491],[109.2279397,13.418486],[109.2280602,13.4182849],[109.2280947,13.4181641],[109.2281684,13.4178524],[109.228189,13.4176916],[109.2282241,13.4174885],[109.2282624,13.4173425],[109.2282239,13.4173068],[109.2281833,13.4172406],[109.2281958,13.417209],[109.2282996,13.417187],[109.2283441,13.4171314],[109.2288512,13.417117],[109.2290616,13.4171858],[109.2293676,13.4174067],[109.2294817,13.4175201],[109.2295466,13.4176766],[109.2296516,13.4180232],[109.2296748,13.4182022],[109.2296594,13.4183036],[109.2296316,13.4184003],[109.2295554,13.4186249],[109.2295039,13.4188398],[109.2294207,13.4190491],[109.229398,13.4191097],[109.2293852,13.4191894],[109.2294088,13.4195263],[109.2294541,13.4197889],[109.2294875,13.4199137],[109.2295323,13.4199395],[109.2295604,13.4199762],[109.2295058,13.4201059],[109.2294469,13.42016],[109.2293201,13.4201976],[109.2292421,13.4202782],[109.2290293,13.4204835],[109.2289702,13.4205167],[109.228924,13.42049],[109.228816,13.4204243],[109.228476,13.4204135],[109.2283484,13.4204963],[109.2282922,13.4204349],[109.2282021,13.4204176],[109.2281473,13.4204666],[109.2280898,13.420405],[109.2279723,13.42035],[109.2278943,13.4204299],[109.2277972,13.4204409],[109.2276967,13.4202708],[109.2276301,13.4201668],[109.2275309,13.4201296],[109.2273722,13.4201048],[109.2271227,13.4200991],[109.2270728,13.4200711],[109.2270499,13.420026]]],[[[109.2312382,13.4116521],[109.2312414,13.4115793],[109.2313,13.4115603],[109.2314106,13.4116046],[109.2314593,13.4116711],[109.2315602,13.4117375],[109.2315472,13.411785],[109.2314496,13.4118261],[109.2313618,13.4118166],[109.231287,13.4117217],[109.2312382,13.4116521]]],[[[109.240361,13.3942583],[109.2406558,13.394231],[109.2408047,13.3941452],[109.2409735,13.3940236],[109.2411277,13.3939532],[109.2414217,13.3939441],[109.2417748,13.3939438],[109.2421063,13.3940478],[109.2423228,13.3941257],[109.2425081,13.3941911],[109.242705,13.3940266],[109.2428039,13.3939306],[109.2428785,13.3939455],[109.2428,13.3940331],[109.2427289,13.3941642],[109.2426051,13.3942518],[109.2433838,13.3946603],[109.2434537,13.3946619],[109.2435327,13.3946232],[109.2437039,13.3946175],[109.2438556,13.3947974],[109.2438246,13.3949898],[109.2439028,13.3951579],[109.2441046,13.3951365],[109.2441831,13.3953693],[109.2442784,13.395445],[109.2445709,13.3954345],[109.2447416,13.3955965],[109.2448826,13.3955378],[109.2451352,13.3955741],[109.2452411,13.3956798],[109.2453231,13.3957949],[109.2454112,13.3956512],[109.2456674,13.3956515],[109.245911,13.3959003],[109.2460261,13.3960416],[109.2463088,13.3961062],[109.2462652,13.3962035],[109.2463923,13.3962515],[109.2464478,13.3963754],[109.2465359,13.3964107],[109.246611,13.3962941],[109.2467421,13.3962392],[109.2467692,13.3963204],[109.2468743,13.3963889],[109.246991,13.396869],[109.2469333,13.3970082],[109.2470186,13.3970904],[109.2468775,13.3971838],[109.246899,13.3972897],[109.246877,13.3973625],[109.2466603,13.397612],[109.2465606,13.3975208],[109.2464706,13.3975562],[109.2464695,13.3976522],[109.2464089,13.3976798],[109.2463151,13.3976129],[109.2461433,13.3976093],[109.2458257,13.3975799],[109.2455436,13.3975834],[109.2454507,13.3975797],[109.2453708,13.3975443],[109.245135,13.3973453],[109.2449707,13.3971653],[109.2446539,13.3970172],[109.2443468,13.3966597],[109.244279,13.3966373],[109.2440842,13.3966306],[109.243981,13.3966711],[109.2439053,13.3967361],[109.2437841,13.3967853],[109.2435338,13.3967214],[109.2432576,13.3965499],[109.2431722,13.3964658],[109.2431051,13.3962757],[109.2429761,13.3962438],[109.242835,13.3962339],[109.2420958,13.3963239],[109.2416006,13.3962841],[109.2415013,13.3962237],[109.2415401,13.3960269],[109.2415583,13.3958429],[109.2414435,13.3956379],[109.24142,13.3955051],[109.2415639,13.3952136],[109.2415972,13.3949882],[109.241631,13.3948504],[109.2415234,13.3947106],[109.2414331,13.3947169],[109.2413858,13.3947106],[109.2412678,13.3945392],[109.2411413,13.394443],[109.2408968,13.3943173],[109.2406438,13.394306],[109.240361,13.3942583]]],[[[109.2431321,13.3940153],[109.2431452,13.3939771],[109.243233,13.3939371],[109.2432834,13.3939499],[109.2434403,13.393968],[109.2434945,13.3939353],[109.2435337,13.3939317],[109.243558,13.3939662],[109.2435599,13.3940335],[109.2435076,13.3940571],[109.2434235,13.394048],[109.2432572,13.3940262],[109.2432348,13.3940753],[109.2432012,13.394088],[109.2431732,13.3940734],[109.2431321,13.3940153]]],[[[109.2441248,13.3946191],[109.2441606,13.3945716],[109.2442387,13.3945969],[109.2443362,13.3946127],[109.2444728,13.3946412],[109.2445281,13.3947108],[109.2445281,13.3948089],[109.2444306,13.3948374],[109.2444273,13.3949007],[109.2443558,13.394926],[109.2442468,13.3949117],[109.2441964,13.3948848],[109.2441281,13.394733],[109.2441248,13.3946191]]],[[[109.2449958,13.3876343],[109.2450237,13.3875905],[109.2450623,13.3876552],[109.2450967,13.387722],[109.2450924,13.3877721],[109.2450538,13.3878138],[109.2450366,13.3877449],[109.2450044,13.387676],[109.2449958,13.3876343]]],[[[109.2450756,13.3873836],[109.2451093,13.3873218],[109.2451578,13.3873364],[109.2451392,13.3872019],[109.2451317,13.3870783],[109.2452027,13.3872092],[109.2453073,13.3874091],[109.2452961,13.3874926],[109.2452326,13.3874599],[109.24524,13.3875508],[109.2452213,13.3876053],[109.245169,13.387598],[109.2450868,13.3874999],[109.2450756,13.3873836]]],[[[109.2799578,13.379776],[109.2800981,13.3795697],[109.2803084,13.3794322],[109.2809393,13.3794322],[109.2812197,13.379501],[109.2815002,13.3796385],[109.2817105,13.379776],[109.2817806,13.3798447],[109.282061,13.3806697],[109.2821311,13.3809446],[109.2821311,13.3812196],[109.2819208,13.3814259],[109.2815703,13.3814259],[109.2815002,13.3812884],[109.2814301,13.3810821],[109.2814301,13.3809446],[109.2813599,13.3808759],[109.2812898,13.3807384],[109.2812197,13.3806697],[109.2809393,13.3806697],[109.2808692,13.3805322],[109.2806589,13.3803947],[109.2802383,13.3803947],[109.280028,13.3801884],[109.2799578,13.3799135],[109.2799578,13.379776]]]]}}]}
